{
  "type": "FeatureCollection",
  "features": [
    {
      "type": "Feature",
      "properties": {
        "norad_id": 38474,
        "name": "IRIDIUM 33 DEB",
        "group": "iridium-33-debris",
        "lat": -57.935234713333884,
        "lon": -166.32691043560123,
        "alt_km": 750.0349292283126,
        "timestamp": "2025-12-17T21:39:46.075621+00:00",
        "meta_object_name": "IRIDIUM 33 DEB",
        "meta_object_id": "1997-051AAB",
        "meta_epoch": "2025-12-13T08:58:04.646496",
        "meta_mean_motion": 14.5069505,
        "meta_eccentricity": 0.00282612,
        "meta_inclination": 86.3454,
        "meta_ra_of_asc_node": 9.789,
        "meta_arg_of_pericenter": 86.1077,
        "meta_mean_anomaly": 274.3358,
        "meta_ephemeris_type": 0,
        "meta_classification_type": "U",
        "meta_norad_cat_id": 38474,
        "meta_element_set_no": 999,
        "meta_rev_at_epoch": 65327,
        "meta_bstar": 0.00084561127,
        "meta_mean_motion_dot": 3.359e-05,
        "meta_mean_motion_ddot": 0,
        "tle_line1": "1 38474U 97051AAB 25347.37366489  .00003359  00000+0  84561-3 0  9991",
        "tle_line2": "2 38474  86.3454   9.7890 0028261  86.1077 274.3358 14.50695050653279"
      },
      "geometry": {
        "type": "Point",
        "coordinates": [
          -166.32691043560123,
          -57.935234713333884
        ]
      }
    },
    {
      "type": "Feature",
      "properties": {
        "norad_id": 39777,
        "name": "IRIDIUM 33 DEB",
        "group": "iridium-33-debris",
        "lat": 31.28088185872628,
        "lon": 174.99776378436655,
        "alt_km": 734.120472316331,
        "timestamp": "2025-12-17T21:39:46.075630+00:00",
        "meta_object_name": "IRIDIUM 33 DEB",
        "meta_object_id": "1997-051AAJ",
        "meta_epoch": "2025-12-17T11:37:29.440128",
        "meta_mean_motion": 14.56536598,
        "meta_eccentricity": 0.00601884,
        "meta_inclination": 85.9622,
        "meta_ra_of_asc_node": 172.7412,
        "meta_arg_of_pericenter": 170.5587,
        "meta_mean_anomaly": 189.6768,
        "meta_ephemeris_type": 0,
        "meta_classification_type": "U",
        "meta_norad_cat_id": 39777,
        "meta_element_set_no": 999,
        "meta_rev_at_epoch": 60254,
        "meta_bstar": 0.0020288102,
        "meta_mean_motion_dot": 9.279e-05,
        "meta_mean_motion_ddot": 0,
        "tle_line1": "1 39777U 97051AAJ 25351.48436852  .00009279  00000+0  20288-2 0  9999",
        "tle_line2": "2 39777  85.9622 172.7412 0060188 170.5587 189.6768 14.56536598602541"
      },
      "geometry": {
        "type": "Point",
        "coordinates": [
          174.99776378436655,
          31.28088185872628
        ]
      }
    },
    {
      "type": "Feature",
      "properties": {
        "norad_id": 39778,
        "name": "IRIDIUM 33 DEB",
        "group": "iridium-33-debris",
        "lat": -5.929055391784335,
        "lon": -138.6382483271527,
        "alt_km": 720.4560670289275,
        "timestamp": "2025-12-17T21:39:46.075639+00:00",
        "meta_object_name": "IRIDIUM 33 DEB",
        "meta_object_id": "1997-051AAK",
        "meta_epoch": "2025-12-17T02:38:47.414400",
        "meta_mean_motion": 14.54293751,
        "meta_eccentricity": 0.00075108,
        "meta_inclination": 86.3779,
        "meta_ra_of_asc_node": 41.3287,
        "meta_arg_of_pericenter": 28.8766,
        "meta_mean_anomaly": 331.2855,
        "meta_ephemeris_type": 0,
        "meta_classification_type": "U",
        "meta_norad_cat_id": 39778,
        "meta_element_set_no": 999,
        "meta_rev_at_epoch": 60756,
        "meta_bstar": 0.00062840699,
        "meta_mean_motion_dot": 2.685e-05,
        "meta_mean_motion_ddot": 0,
        "tle_line1": "1 39778U 97051AAK 25351.11027100  .00002685  00000+0  62841-3 0  9998",
        "tle_line2": "2 39778  86.3779  41.3287 0007510  28.8766 331.2855 14.54293751607563"
      },
      "geometry": {
        "type": "Point",
        "coordinates": [
          -138.6382483271527,
          -5.929055391784335
        ]
      }
    },
    {
      "type": "Feature",
      "properties": {
        "norad_id": 39781,
        "name": "IRIDIUM 33 DEB",
        "group": "iridium-33-debris",
        "lat": 39.493500903737036,
        "lon": -101.15034045830272,
        "alt_km": 919.8342174689897,
        "timestamp": "2025-12-17T21:39:46.075648+00:00",
        "meta_object_name": "IRIDIUM 33 DEB",
        "meta_object_id": "1997-051AAN",
        "meta_epoch": "2025-12-15T00:15:44.903232",
        "meta_mean_motion": 14.2070789,
        "meta_eccentricity": 0.01756389,
        "meta_inclination": 86.371,
        "meta_ra_of_asc_node": 257.043,
        "meta_arg_of_pericenter": 266.0338,
        "meta_mean_anomaly": 111.7662,
        "meta_ephemeris_type": 0,
        "meta_classification_type": "U",
        "meta_norad_cat_id": 39781,
        "meta_element_set_no": 999,
        "meta_rev_at_epoch": 8139,
        "meta_bstar": 0.0031777078,
        "meta_mean_motion_dot": 8.021e-05,
        "meta_mean_motion_ddot": 0,
        "tle_line1": "1 39781U 97051AAN 25349.01093638  .00008021  00000+0  31777-2 0  9990",
        "tle_line2": "2 39781  86.3710 257.0430 0175638 266.0338 111.7662 14.20707890 81397"
      },
      "geometry": {
        "type": "Point",
        "coordinates": [
          -101.15034045830272,
          39.493500903737036
        ]
      }
    },
    {
      "type": "Feature",
      "properties": {
        "norad_id": 40996,
        "name": "IRIDIUM 33 DEB",
        "group": "iridium-33-debris",
        "lat": 6.899301818071411,
        "lon": 178.55613544069115,
        "alt_km": 584.3279795985682,
        "timestamp": "2025-12-17T21:39:46.075657+00:00",
        "meta_object_name": "IRIDIUM 33 DEB",
        "meta_object_id": "1997-051ABJ",
        "meta_epoch": "2025-12-16T11:52:02.455968",
        "meta_mean_motion": 14.96488968,
        "meta_eccentricity": 0.00116474,
        "meta_inclination": 86.3523,
        "meta_ra_of_asc_node": 359.6563,
        "meta_arg_of_pericenter": 53.6369,
        "meta_mean_anomaly": 97.9522,
        "meta_ephemeris_type": 0,
        "meta_classification_type": "U",
        "meta_norad_cat_id": 40996,
        "meta_element_set_no": 999,
        "meta_rev_at_epoch": 62544,
        "meta_bstar": 0.0019797945,
        "meta_mean_motion_dot": 0.00022579,
        "meta_mean_motion_ddot": 0,
        "tle_line1": "1 40996U 97051ABJ 25350.49447287  .00022579  00000+0  19798-2 0  9990",
        "tle_line2": "2 40996  86.3523 359.6563 0011647  53.6369  97.9522 14.96488968625443"
      },
      "geometry": {
        "type": "Point",
        "coordinates": [
          178.55613544069115,
          6.899301818071411
        ]
      }
    },
    {
      "type": "Feature",
      "properties": {
        "norad_id": 40998,
        "name": "IRIDIUM 33 DEB",
        "group": "iridium-33-debris",
        "lat": 34.919047503034946,
        "lon": 53.98167812060535,
        "alt_km": 733.8376578442567,
        "timestamp": "2025-12-17T21:39:46.075666+00:00",
        "meta_object_name": "IRIDIUM 33 DEB",
        "meta_object_id": "1997-051ABL",
        "meta_epoch": "2025-12-14T22:36:58.178592",
        "meta_mean_motion": 14.45106117,
        "meta_eccentricity": 0.00094247,
        "meta_inclination": 86.383,
        "meta_ra_of_asc_node": 52.7149,
        "meta_arg_of_pericenter": 78.6428,
        "meta_mean_anomaly": 45.8037,
        "meta_ephemeris_type": 0,
        "meta_classification_type": "U",
        "meta_norad_cat_id": 40998,
        "meta_element_set_no": 999,
        "meta_rev_at_epoch": 6713,
        "meta_bstar": 0.0004149731,
        "meta_mean_motion_dot": 1.471e-05,
        "meta_mean_motion_ddot": 0,
        "tle_line1": "1 40998U 97051ABL 25348.94234003  .00001471  00000+0  41497-3 0  9999",
        "tle_line2": "2 40998  86.3830  52.7149 0009424  78.6428  45.8037 14.45106117 67136"
      },
      "geometry": {
        "type": "Point",
        "coordinates": [
          53.98167812060535,
          34.919047503034946
        ]
      }
    },
    {
      "type": "Feature",
      "properties": {
        "norad_id": 46435,
        "name": "IRIDIUM 33 DEB",
        "group": "iridium-33-debris",
        "lat": 29.45523389060558,
        "lon": -166.16835918999874,
        "alt_km": 875.419299429419,
        "timestamp": "2025-12-17T21:39:46.075675+00:00",
        "meta_object_name": "IRIDIUM 33 DEB",
        "meta_object_id": "1997-051ABN",
        "meta_epoch": "2025-12-13T20:22:29.882208",
        "meta_mean_motion": 14.32399442,
        "meta_eccentricity": 0.0208315,
        "meta_inclination": 86.2839,
        "meta_ra_of_asc_node": 193.4722,
        "meta_arg_of_pericenter": 272.7642,
        "meta_mean_anomaly": 103.0816,
        "meta_ephemeris_type": 0,
        "meta_classification_type": "U",
        "meta_norad_cat_id": 46435,
        "meta_element_set_no": 999,
        "meta_rev_at_epoch": 7932,
        "meta_bstar": 0.009141333,
        "meta_mean_motion_dot": 0.00031559,
        "meta_mean_motion_ddot": 0,
        "tle_line1": "1 46435U 97051ABN 25347.84895697  .00031559  00000+0  91413-2 0  9993",
        "tle_line2": "2 46435  86.2839 193.4722 0208315 272.7642 103.0816 14.32399442 79328"
      },
      "geometry": {
        "type": "Point",
        "coordinates": [
          -166.16835918999874,
          29.45523389060558
        ]
      }
    }
  ]
}